{
  "type": "FeatureCollection",
  "features": [
    {
      "type": "Feature",
      "properties": {
        "norad_id": 36743,
        "name": "FENGYUN 1C DEB",
        "group": "fengyun-1c-debris",
        "lat": -26.401525101927177,
        "lon": -156.40338883299495,
        "alt_km": 834.621365621927,
        "timestamp": "2025-12-05T14:45:15.587741+00:00",
        "meta_object_name": "FENGYUN 1C DEB",
        "meta_object_id": "1999-025EBR",
        "meta_epoch": "2025-12-04T14:15:58.905792",
        "meta_mean_motion": 14.29017755,
        "meta_eccentricity": 0.0047823,
        "meta_inclination": 98.656,
        "meta_ra_of_asc_node": 26.9209,
        "meta_arg_of_pericenter": 37.2124,
        "meta_mean_anomaly": 323.2356,
        "meta_ephemeris_type": 0,
        "meta_classification_type": "U",
        "meta_norad_cat_id": 36743,
        "meta_element_set_no": 999,
        "meta_rev_at_epoch": 60621,
        "meta_bstar": 0.0026931,
        "meta_mean_motion_dot": 6.861e-05,
        "meta_mean_motion_ddot": 0,
        "tle_line1": "1 36743U 99025EBR 25338.59443178  .00006861  00000+0  26931-2 0  9993",
        "tle_line2": "2 36743  98.6560  26.9209 0047823  37.2124 323.2356 14.29017755606210"
      },
      "geometry": {
        "type": "Point",
        "coordinates": [
          -156.40338883299495,
          -26.401525101927177
        ]
      }
    },
    {
      "type": "Feature",
      "properties": {
        "norad_id": 36986,
        "name": "FENGYUN 1C DEB",
        "group": "fengyun-1c-debris",
        "lat": 5.33253716230254,
        "lon": -133.70206094461878,
        "alt_km": 842.8963918678137,
        "timestamp": "2025-12-05T14:45:15.587751+00:00",
        "meta_object_name": "FENGYUN 1C DEB",
        "meta_object_id": "1999-025EBS",
        "meta_epoch": "2025-11-23T16:41:57.060384",
        "meta_mean_motion": 14.14366632,
        "meta_eccentricity": 0.00851125,
        "meta_inclination": 99.1414,
        "meta_ra_of_asc_node": 33.2424,
        "meta_arg_of_pericenter": 295.2999,
        "meta_mean_anomaly": 63.9373,
        "meta_ephemeris_type": 0,
        "meta_classification_type": "U",
        "meta_norad_cat_id": 36986,
        "meta_element_set_no": 999,
        "meta_rev_at_epoch": 81475,
        "meta_bstar": 0.0017459823,
        "meta_mean_motion_dot": 3.412e-05,
        "meta_mean_motion_ddot": 0,
        "tle_line1": "1 36986U 99025EBS 25327.69579931  .00003412  00000+0  17460-2 0  9994",
        "tle_line2": "2 36986  99.1414  33.2424 0085112 295.2999  63.9373 14.14366632814754"
      },
      "geometry": {
        "type": "Point",
        "coordinates": [
          -133.70206094461878,
          5.33253716230254
        ]
      }
    },
    {
      "type": "Feature",
      "properties": {
        "norad_id": 36987,
        "name": "FENGYUN 1C DEB",
        "group": "fengyun-1c-debris",
        "lat": 38.442154133779994,
        "lon": -148.91096388747377,
        "alt_km": 866.0642467794169,
        "timestamp": "2025-12-05T14:45:15.587761+00:00",
        "meta_object_name": "FENGYUN 1C DEB",
        "meta_object_id": "1999-025EBT",
        "meta_epoch": "2025-12-02T22:20:26.678112",
        "meta_mean_motion": 13.45848685,
        "meta_eccentricity": 0.03193784,
        "meta_inclination": 100.8193,
        "meta_ra_of_asc_node": 216.9246,
        "meta_arg_of_pericenter": 70.1145,
        "meta_mean_anomaly": 293.4099,
        "meta_ephemeris_type": 0,
        "meta_classification_type": "U",
        "meta_norad_cat_id": 36987,
        "meta_element_set_no": 999,
        "meta_rev_at_epoch": 60745,
        "meta_bstar": 0.0014450845,
        "meta_mean_motion_dot": 1.124e-05,
        "meta_mean_motion_ddot": 0,
        "tle_line1": "1 36987U 99025EBT 25336.93086433  .00001124  00000+0  14451-2 0  9997",
        "tle_line2": "2 36987 100.8193 216.9246 0319378  70.1145 293.4099 13.45848685607456"
      },
      "geometry": {
        "type": "Point",
        "coordinates": [
          -148.91096388747377,
          38.442154133779994
        ]
      }
    },
    {
      "type": "Feature",
      "properties": {
        "norad_id": 36994,
        "name": "FENGYUN 1C DEB",
        "group": "fengyun-1c-debris",
        "lat": -34.266539964369606,
        "lon": -51.692043320445705,
        "alt_km": 849.9262223525429,
        "timestamp": "2025-12-05T14:45:15.587771+00:00",
        "meta_object_name": "FENGYUN 1C DEB",
        "meta_object_id": "1999-025ECA",
        "meta_epoch": "2025-12-02T04:02:29.947488",
        "meta_mean_motion": 13.90778611,
        "meta_eccentricity": 0.01150307,
        "meta_inclination": 98.6418,
        "meta_ra_of_asc_node": 299.1542,
        "meta_arg_of_pericenter": 322.4253,
        "meta_mean_anomaly": 36.8909,
        "meta_ephemeris_type": 0,
        "meta_classification_type": "U",
        "meta_norad_cat_id": 36994,
        "meta_element_set_no": 999,
        "meta_rev_at_epoch": 80760,
        "meta_bstar": 0.00021509724,
        "meta_mean_motion_dot": 2.43e-06,
        "meta_mean_motion_ddot": 0,
        "tle_line1": "1 36994U 99025ECA 25336.16840217  .00000243  00000+0  21510-3 0  9994",
        "tle_line2": "2 36994  98.6418 299.1542 0115030 322.4253  36.8909 13.90778611807601"
      },
      "geometry": {
        "type": "Point",
        "coordinates": [
          -51.692043320445705,
          -34.266539964369606
        ]
      }
    },
    {
      "type": "Feature",
      "properties": {
        "norad_id": 36995,
        "name": "FENGYUN 1C DEB",
        "group": "fengyun-1c-debris",
        "lat": -47.91233064309288,
        "lon": 29.5382808232871,
        "alt_km": 890.2271619980565,
        "timestamp": "2025-12-05T14:45:15.587782+00:00",
        "meta_object_name": "FENGYUN 1C DEB",
        "meta_object_id": "1999-025ECB",
        "meta_epoch": "2025-12-02T22:25:21.666720",
        "meta_mean_motion": 14.04865575,
        "meta_eccentricity": 0.00390494,
        "meta_inclination": 98.3441,
        "meta_ra_of_asc_node": 216.4246,
        "meta_arg_of_pericenter": 339.4801,
        "meta_mean_anomaly": 20.4798,
        "meta_ephemeris_type": 0,
        "meta_classification_type": "U",
        "meta_norad_cat_id": 36995,
        "meta_element_set_no": 999,
        "meta_rev_at_epoch": 63419,
        "meta_bstar": 4.8277221e-05,
        "meta_mean_motion_dot": 3.9e-07,
        "meta_mean_motion_ddot": 0,
        "tle_line1": "1 36995U 99025ECB 25336.93427855  .00000039  00000+0  48277-4 0  9992",
        "tle_line2": "2 36995  98.3441 216.4246 0039049 339.4801  20.4798 14.04865575634199"
      },
      "geometry": {
        "type": "Point",
        "coordinates": [
          29.5382808232871,
          -47.91233064309288
        ]
      }
    },
    {
      "type": "Feature",
      "properties": {
        "norad_id": 36996,
        "name": "FENGYUN 1C DEB",
        "group": "fengyun-1c-debris",
        "lat": 11.230461902855277,
        "lon": -45.92322830301216,
        "alt_km": 1027.110197052747,
        "timestamp": "2025-12-05T14:45:15.587792+00:00",
        "meta_object_name": "FENGYUN 1C DEB",
        "meta_object_id": "1999-025ECC",
        "meta_epoch": "2025-11-27T05:46:51.154176",
        "meta_mean_motion": 14.11461211,
        "meta_eccentricity": 0.02552856,
        "meta_inclination": 98.2247,
        "meta_ra_of_asc_node": 124.7451,
        "meta_arg_of_pericenter": 33.8599,
        "meta_mean_anomaly": 87.2847,
        "meta_ephemeris_type": 0,
        "meta_classification_type": "U",
        "meta_norad_cat_id": 36996,
        "meta_element_set_no": 999,
        "meta_rev_at_epoch": 59473,
        "meta_bstar": 0.00085126792,
        "meta_mean_motion_dot": 2.056e-05,
        "meta_mean_motion_ddot": 0,
        "tle_line1": "1 36996U 99025ECC 25331.24086984  .00002056  00000+0  85127-3 0  9991",
        "tle_line2": "2 36996  98.2247 124.7451 0255285  33.8599  87.2847 14.11461211594731"
      },
      "geometry": {
        "type": "Point",
        "coordinates": [
          -45.92322830301216,
          11.230461902855277
        ]
      }
    },
    {
      "type": "Feature",
      "properties": {
        "norad_id": 37003,
        "name": "FENGYUN 1C DEB",
        "group": "fengyun-1c-debris",
        "lat": -69.70069956762813,
        "lon": 158.6107803420767,
        "alt_km": 889.5736107735129,
        "timestamp": "2025-12-05T14:45:15.587802+00:00",
        "meta_object_name": "FENGYUN 1C DEB",
        "meta_object_id": "1999-025ECK",
        "meta_epoch": "2025-11-29T08:00:12.278880",
        "meta_mean_motion": 13.96183433,
        "meta_eccentricity": 0.00964489,
        "meta_inclination": 98.8482,
        "meta_ra_of_asc_node": 357.4784,
        "meta_arg_of_pericenter": 198.9753,
        "meta_mean_anomaly": 177.4394,
        "meta_ephemeris_type": 0,
        "meta_classification_type": "U",
        "meta_norad_cat_id": 37003,
        "meta_element_set_no": 999,
        "meta_rev_at_epoch": 60470,
        "meta_bstar": 0.00050828845,
        "meta_mean_motion_dot": 6.84e-06,
        "meta_mean_motion_ddot": 0,
        "tle_line1": "1 37003U 99025ECK 25333.33347545  .00000684  00000+0  50829-3 0  9992",
        "tle_line2": "2 37003  98.8482 357.4784 0096448 198.9753 177.4394 13.96183433604708"
      },
      "geometry": {
        "type": "Point",
        "coordinates": [
          158.6107803420767,
          -69.70069956762813
        ]
      }
    }
  ]
}